{
  "type": "FeatureCollection",
  "features": [
    {
      "type": "Feature",
      "properties": {
        "norad_id": 32275,
        "name": "COSMOS 2433 (720)",
        "group": "glo-ops",
        "lat": 5.232958033381743,
        "lon": -35.93480095808894,
        "alt_km": 19133.65148192228,
        "timestamp": "2025-12-27T15:27:11.451549+00:00",
        "meta_object_name": "COSMOS 2433 (720)",
        "meta_object_id": "2007-052A",
        "meta_epoch": "2025-12-26T05:29:12.755904",
        "meta_mean_motion": 2.13104171,
        "meta_eccentricity": 0.0005081,
        "meta_inclination": 65.6759,
        "meta_ra_of_asc_node": 321.753,
        "meta_arg_of_pericenter": 257.4758,
        "meta_mean_anomaly": 102.4712,
        "meta_ephemeris_type": 0,
        "meta_classification_type": "U",
        "meta_norad_cat_id": 32275,
        "meta_element_set_no": 999,
        "meta_rev_at_epoch": 14137,
        "meta_bstar": 0,
        "meta_mean_motion_dot": -3.3e-07,
        "meta_mean_motion_ddot": 0,
        "tle_line1": "1 32275U 07052A   25360.22861986 -.00000033  00000+0  00000+0 0  9996",
        "tle_line2": "2 32275  65.6759 321.7530 0005081 257.4758 102.4712  2.13104171141375"
      },
      "geometry": {
        "type": "Point",
        "coordinates": [
          -35.93480095808894,
          5.232958033381743
        ]
      }
    },
    {
      "type": "Feature",
      "properties": {
        "norad_id": 32276,
        "name": "COSMOS 2432 (719)",
        "group": "glo-ops",
        "lat": -44.188400065430535,
        "lon": -64.22904053356264,
        "alt_km": 19106.07395032452,
        "timestamp": "2025-12-27T15:27:11.451572+00:00",
        "meta_object_name": "COSMOS 2432 (719)",
        "meta_object_id": "2007-052B",
        "meta_epoch": "2025-12-27T06:49:58.250208",
        "meta_mean_motion": 2.13103316,
        "meta_eccentricity": 0.00114333,
        "meta_inclination": 65.6913,
        "meta_ra_of_asc_node": 321.8424,
        "meta_arg_of_pericenter": 315.4046,
        "meta_mean_anomaly": 79.1571,
        "meta_ephemeris_type": 0,
        "meta_classification_type": "U",
        "meta_norad_cat_id": 32276,
        "meta_element_set_no": 999,
        "meta_rev_at_epoch": 14142,
        "meta_bstar": 0,
        "meta_mean_motion_dot": -3.6e-07,
        "meta_mean_motion_ddot": 0,
        "tle_line1": "1 32276U 07052B   25361.28470197 -.00000036  00000+0  00000+0 0  9997",
        "tle_line2": "2 32276  65.6913 321.8424 0011433 315.4046  79.1571  2.13103316141423"
      },
      "geometry": {
        "type": "Point",
        "coordinates": [
          -64.22904053356264,
          -44.188400065430535
        ]
      }
    },
    {
      "type": "Feature",
      "properties": {
        "norad_id": 32393,
        "name": "COSMOS 2434 (721)",
        "group": "glo-ops",
        "lat": -61.06590535838473,
        "lon": 78.25759351503157,
        "alt_km": 19148.59867338908,
        "timestamp": "2025-12-27T15:27:11.451588+00:00",
        "meta_object_name": "COSMOS 2434 (721)",
        "meta_object_id": "2007-065A",
        "meta_epoch": "2025-12-27T02:08:22.083936",
        "meta_mean_motion": 2.13101378,
        "meta_eccentricity": 0.0004806,
        "meta_inclination": 64.316,
        "meta_ra_of_asc_node": 197.7187,
        "meta_arg_of_pericenter": 72.1868,
        "meta_mean_anomaly": 118.5002,
        "meta_ephemeris_type": 0,
        "meta_classification_type": "U",
        "meta_norad_cat_id": 32393,
        "meta_element_set_no": 999,
        "meta_rev_at_epoch": 14010,
        "meta_bstar": 0,
        "meta_mean_motion_dot": 1.2e-06,
        "meta_mean_motion_ddot": 0,
        "tle_line1": "1 32393U 07065A   25361.08914449  .00000120  00000+0  00000+0 0  9995",
        "tle_line2": "2 32393  64.3160 197.7187 0004806  72.1868 118.5002  2.13101378140101"
      },
      "geometry": {
        "type": "Point",
        "coordinates": [
          78.25759351503157,
          -61.06590535838473
        ]
      }
    },
    {
      "type": "Feature",
      "properties": {
        "norad_id": 32395,
        "name": "COSMOS 2436 (723)",
        "group": "glo-ops",
        "lat": 26.158641431007084,
        "lon": -148.5547722599154,
        "alt_km": 19084.12658321147,
        "timestamp": "2025-12-27T15:27:11.451601+00:00",
        "meta_object_name": "COSMOS 2436 (723)",
        "meta_object_id": "2007-065C",
        "meta_epoch": "2025-12-26T09:51:08.082144",
        "meta_mean_motion": 2.13100172,
        "meta_eccentricity": 0.0017813,
        "meta_inclination": 64.3246,
        "meta_ra_of_asc_node": 197.8121,
        "meta_arg_of_pericenter": 10.2944,
        "meta_mean_anomaly": 152.7871,
        "meta_ephemeris_type": 0,
        "meta_classification_type": "U",
        "meta_norad_cat_id": 32395,
        "meta_element_set_no": 999,
        "meta_rev_at_epoch": 14004,
        "meta_bstar": 0,
        "meta_mean_motion_dot": 1.14e-06,
        "meta_mean_motion_ddot": 0,
        "tle_line1": "1 32395U 07065C   25360.41051021  .00000114  00000+0  00000+0 0  9994",
        "tle_line2": "2 32395  64.3246 197.8121 0017813  10.2944 152.7871  2.13100172140045"
      },
      "geometry": {
        "type": "Point",
        "coordinates": [
          -148.5547722599154,
          26.158641431007084
        ]
      }
    },
    {
      "type": "Feature",
      "properties": {
        "norad_id": 36111,
        "name": "COSMOS 2456 (730)",
        "group": "glo-ops",
        "lat": 46.67346891007866,
        "lon": 106.5813331779739,
        "alt_km": 19128.908852889952,
        "timestamp": "2025-12-27T15:27:11.451613+00:00",
        "meta_object_name": "COSMOS 2456 (730)",
        "meta_object_id": "2009-070A",
        "meta_epoch": "2025-12-27T04:41:41.219808",
        "meta_mean_motion": 2.13103691,
        "meta_eccentricity": 0.00037027,
        "meta_inclination": 64.9075,
        "meta_ra_of_asc_node": 76.844,
        "meta_arg_of_pericenter": 295.0065,
        "meta_mean_anomaly": 134.5252,
        "meta_ephemeris_type": 0,
        "meta_classification_type": "U",
        "meta_norad_cat_id": 36111,
        "meta_element_set_no": 999,
        "meta_rev_at_epoch": 12476,
        "meta_bstar": 0,
        "meta_mean_motion_dot": -1.5e-07,
        "meta_mean_motion_ddot": 0,
        "tle_line1": "1 36111U 09070A   25361.19561597 -.00000015  00000+0  00000+0 0  9993",
        "tle_line2": "2 36111  64.9075  76.8440 0003702 295.0065 134.5252  2.13103691124761"
      },
      "geometry": {
        "type": "Point",
        "coordinates": [
          106.5813331779739,
          46.67346891007866
        ]
      }
    },
    {
      "type": "Feature",
      "properties": {
        "norad_id": 36112,
        "name": "COSMOS 2457 (733)",
        "group": "glo-ops",
        "lat": -2.2301897106099653,
        "lon": -102.26808513821574,
        "alt_km": 19120.157967080133,
        "timestamp": "2025-12-27T15:27:11.451625+00:00",
        "meta_object_name": "COSMOS 2457 (733)",
        "meta_object_id": "2009-070B",
        "meta_epoch": "2025-12-26T13:03:04.060800",
        "meta_mean_motion": 2.13101072,
        "meta_eccentricity": 0.0004395,
        "meta_inclination": 64.8927,
        "meta_ra_of_asc_node": 76.7135,
        "meta_arg_of_pericenter": 164.2484,
        "meta_mean_anomaly": 254.2411,
        "meta_ephemeris_type": 0,
        "meta_classification_type": "U",
        "meta_norad_cat_id": 36112,
        "meta_element_set_no": 999,
        "meta_rev_at_epoch": 12475,
        "meta_bstar": 0,
        "meta_mean_motion_dot": -1e-07,
        "meta_mean_motion_ddot": 0,
        "tle_line1": "1 36112U 09070B   25360.54379700 -.00000010  00000+0  00000+0 0  9990",
        "tle_line2": "2 36112  64.8927  76.7135 0004395 164.2484 254.2411  2.13101072124755"
      },
      "geometry": {
        "type": "Point",
        "coordinates": [
          -102.26808513821574,
          -2.2301897106099653
        ]
      }
    },
    {
      "type": "Feature",
      "properties": {
        "norad_id": 36402,
        "name": "COSMOS 2460 (732)",
        "group": "glo-ops",
        "lat": -1.981660201557663,
        "lon": 141.15966471581277,
        "alt_km": 19131.768448497438,
        "timestamp": "2025-12-27T15:27:11.451644+00:00",
        "meta_object_name": "COSMOS 2460 (732)",
        "meta_object_id": "2010-007C",
        "meta_epoch": "2025-12-27T01:42:51.563232",
        "meta_mean_motion": 2.13106312,
        "meta_eccentricity": 0.00024726,
        "meta_inclination": 65.5217,
        "meta_ra_of_asc_node": 320.2897,
        "meta_arg_of_pericenter": 284.8889,
        "meta_mean_anomaly": 178.0863,
        "meta_ephemeris_type": 0,
        "meta_classification_type": "U",
        "meta_norad_cat_id": 36402,
        "meta_element_set_no": 999,
        "meta_rev_at_epoch": 12306,
        "meta_bstar": 0,
        "meta_mean_motion_dot": -3.6e-07,
        "meta_mean_motion_ddot": 0,
        "tle_line1": "1 36402U 10007C   25361.07143013 -.00000036  00000+0  00000+0 0  9997",
        "tle_line2": "2 36402  65.5217 320.2897 0002472 284.8889 178.0863  2.13106312123060"
      },
      "geometry": {
        "type": "Point",
        "coordinates": [
          141.15966471581277,
          -1.981660201557663
        ]
      }
    }
  ]
}